STARLINK-1814
1 16712C 20073AU  21326.14481286  .00004716  00000-0  31592-3 0  3265
2 16712  53.0554  83.1047 0001237  76.9438 218.7466 15.06399632    16
